#cP2024  2 10  6  0  0.00000000     577 d+D   IGS20 EXT AIUB
## 2300 540000.00000000   300.00000000 60350 0.2500000000000
+   75   G03G04G05G06G07G08G09G11G12G13G14G15G16G17G18G19G20
+        G21G22G23G24G25G26G27G28G29G30G31G32R01R02R03R04R05
+        R07R08R09R11R12R13R14R15R16R17R18R19R20R21R22R24E02
+        E03E04E05E07E08E09E10E11E12E13E14E15E18E19E21E24E25
+        E26E27E30E31E33E34E36  0  0  0  0  0  0  0  0  0  0
++         6  6  7  6  7  6  5  7  7  7  6  9  7  7  7  7  7
++         7  7  6  7  8  6  6  6  7  7  7  6  9  8  8  7  8
++         8  8  6  7  5  7  6  6  7  8  6  8  9  8  7  8  6
++         8  7  6  9  8  6  7  7  7  7  6  7  7  7  6  6  6
++         6  6  7  6  7  7  6  0  0  0  0  0  0  0  0  0  0
%c M  cc GPS ccc cccc cccc cccc cccc ccccc ccccc ccccc ccccc
%c cc cc ccc ccc cccc cccc cccc cccc ccccc ccccc ccccc ccccc
%f  1.2500000  1.025000000  0.00000000000  0.000000000000000
%f  0.0000000  0.000000000  0.00000000000  0.000000000000000
%i    0    0    0    0      0      0      0      0         0
%i    0    0    0    0      0      0      0      0         0
/* Center for Orbit Determination in Europe (CODE)          
/* Ultra-rapid GRE orbits starting year-day 24041 06 hour   
/* Observed/predicted: 25/23 hours (data used up to 042G)   
/* PCV:IGS20      OL/AL:FES2014b NONE     YN ORB:CoN CLK:BRD
*  2024  2 11  6 25  0.00000000
PG03 -11447.416362  12414.004899 -20613.457106    185.734935
PG04  -4505.334174  20237.397167 -16506.938442    288.825201
PG05  22312.106072  -6936.176460  12540.088414   -161.369220
PG06  14449.835762   4653.034627 -21737.322819    411.580783
PG07    113.812748  20347.603964  17305.001637    -59.186154
PG08 -10212.328381  12840.444980  20705.734590   -166.443112
PG09   6569.875093  24986.144693  -6113.039342     88.314828
PG11  19961.161960  -6421.450230 -16249.457106   -571.858486
PG12  12718.083547 -11921.587993 -20307.629928   -476.842786
PG13  14649.276301  -2810.233130  21778.827821    624.461959
PG14  17812.578646  13362.227059  14639.732165    322.695927
PG15   8796.896984 -14140.516801  20160.533439    126.509843
PG16 -25647.503890   -189.448527   7425.606731   -365.173739
PG17  12626.693226  22185.375977  -6617.313510    717.356493
PG18   -148.090316 -19531.296288  17925.729323   -553.008215
PG19  15626.217363  15605.973292 -15201.569141    439.061711
PG20  26443.379631  -1148.551002   -296.631040    387.939736
PG21 -17111.854274  18602.221253   6741.982080    135.346598
PG22  22554.549726  11042.534712   8607.923921     33.129406
PG23  -9734.439613 -14524.929556  20072.527469    153.747683
PG24  15225.435885 -21300.876155   2416.316175   -429.796292
PG25    134.908511 -15650.631871 -21807.981697    488.228473
PG26 -26207.790554  -4018.072949  -3757.007604    191.431112
PG27 -16154.367864   -887.721850  20868.513393     -3.003509
PG28 -13262.726126  -7538.693112 -21761.922524   -127.218035
PG29  -3188.032331 -25269.859879  -7393.753992   -607.192425
PG30   9497.846753  13201.620442  21092.356534   -434.079325
PG31 -18732.025127   1884.988196 -19098.991528   -227.726701
PG32 -15599.247750 -19350.484117  -9450.928955   -610.979441
PR01  10841.732504  18900.420239 -13266.784228     76.861622
PR02  18925.464169  16588.578794   3985.388946    -22.460912
PR03  16766.915062   4266.924625  18768.398155     94.317342
PR04   5369.879737  -9727.700259  22994.863013    222.945671
PR05  -8772.867122 -18799.339753  14875.873302    126.730527
PR07 -16413.676372  -3690.605325 -19150.208326     75.560138
PR08  -5187.168685   9970.283340 -22832.032431    -74.366500
PR09 -17399.961422  -4122.175261 -18141.630313    169.375790
PR11 -19117.558067  11526.912386  12332.108252     34.716219
PR12   -559.720570  11503.437195  22777.843613     36.616182
PR13  15398.908117   5364.020687  19591.524216    -44.246753
PR14  24724.897598  -5326.778450   3384.765531     26.049725
PR15  18143.679961 -11760.233665 -13525.352717     82.299412
PR16    876.145446 -11431.214422 -22787.495461     23.196335
PR17  12034.827046  -7239.862479 -21273.954136     60.283528
PR18  10544.539526 -21147.668504  -9660.236454    126.795174
PR19   5246.857563 -24390.231490   5328.339315   -265.382615
PR20  -5974.097171 -12586.953023  21390.532444   -108.100175
PR21 -12061.996051   7508.239313  21192.986740    -76.057771
PR22 -11010.563860  21314.516112   8671.487035    107.541766
PR24   7173.081871  11871.841291 -21389.334775    -43.449803
PE02  11917.511954 -14312.812873 -23013.307640    102.460457
PE03   4263.086477 -23037.445605  18084.097249    -93.058987
PE04  10416.046518  27682.751062  -1126.809996   -324.604008
PE05  16234.044623  -5034.129272  24238.430935   4718.947208
PE07 -18732.459545 -16429.066153 -15969.928076   -103.164520
PE08  -9979.279626 -27803.792925   1821.598450   -222.076800
PE09  18640.293482  16572.221152  15950.804113   -331.933165
PE10   8635.970995  14406.772442 -24373.220485   -601.058454
PE11  16336.386651   4554.033503 -24267.483146   3252.810097
PE12    579.934111  21077.606614 -20761.621393   -901.388238
PE13 -15842.359453  -5205.669978  24462.767200    -20.148108
PE14 -13288.154233  11072.478077  19235.784599 999999.999999
PE15    -51.599315 -21370.963116  20496.486144    -85.161090
PE18  20283.034552   -843.123043 -23036.350167 999999.999999
PE19  -5907.752827  21443.183957 -19519.856591   -637.249111
PE21 -27107.797727   3958.769277  11210.136696   -578.431880
PE24  26874.916142   9478.334418   7932.107512   -591.870850
PE25  27270.169266  -3710.676228 -10887.680474      0.733538
PE26 -22191.721941  14208.082611  13488.973745    365.440003
PE27 -27104.483176  -9171.808213  -7612.469663   -271.834628
PE30 -10819.726974 -16868.018977 -21808.520571   -897.608029
PE31  11114.100088  16741.790035  21728.439249    -15.738799
PE33 -15890.421895  24645.309498  -4022.460684      7.413391
PE34  15491.508552 -24802.784023   4580.757669    -93.993083
PE36  22125.275594 -13758.447145 -14055.401523   -184.335806
EOF
